{
  "type": "FeatureCollection",
  "features": [
    {
      "type": "Feature",
      "properties": {
        "norad_id": 43823,
        "name": "GEO-KOMPSAT-2A",
        "group": "weather",
        "lat": 0.016289588169391155,
        "lon": 110.75312132491776,
        "alt_km": 35784.71725532951,
        "timestamp": "2025-12-21T16:47:54.371948+00:00",
        "meta_object_name": "GEO-KOMPSAT-2A",
        "meta_object_id": "2018-100A",
        "meta_epoch": "2025-12-21T12:40:07.140288",
        "meta_mean_motion": 1.00270687,
        "meta_eccentricity": 4.06e-05,
        "meta_inclination": 0.0517,
        "meta_ra_of_asc_node": 133.066,
        "meta_arg_of_pericenter": 328.636,
        "meta_mean_anomaly": 306.9428,
        "meta_ephemeris_type": 0,
        "meta_classification_type": "U",
        "meta_norad_cat_id": 43823,
        "meta_element_set_no": 999,
        "meta_rev_at_epoch": 2584,
        "meta_bstar": 0,
        "meta_mean_motion_dot": -3.21e-06,
        "meta_mean_motion_ddot": 0,
        "tle_line1": "1 43823U 18100A   25355.52786042 -.00000321  00000+0  00000+0 0  9999",
        "tle_line2": "2 43823   0.0517 133.0660 0000406 328.6360 306.9428  1.00270687 25844"
      },
      "geometry": {
        "type": "Point",
        "coordinates": [
          110.75312132491776,
          0.016289588169391155
        ]
      }
    },
    {
      "type": "Feature",
      "properties": {
        "norad_id": 44387,
        "name": "METEOR-M2 2",
        "group": "weather",
        "lat": -31.856328828512268,
        "lon": 149.9523296943594,
        "alt_km": 816.7332812060431,
        "timestamp": "2025-12-21T16:47:54.371958+00:00",
        "meta_object_name": "METEOR-M2 2",
        "meta_object_id": "2019-038A",
        "meta_epoch": "2025-12-21T12:26:00.315744",
        "meta_mean_motion": 14.24294507,
        "meta_eccentricity": 0.0001642,
        "meta_inclination": 98.8973,
        "meta_ra_of_asc_node": 335.3542,
        "meta_arg_of_pericenter": 129.7186,
        "meta_mean_anomaly": 230.4137,
        "meta_ephemeris_type": 0,
        "meta_classification_type": "U",
        "meta_norad_cat_id": 44387,
        "meta_element_set_no": 999,
        "meta_rev_at_epoch": 33600,
        "meta_bstar": 2.7527e-05,
        "meta_mean_motion_dot": 1.8e-07,
        "meta_mean_motion_ddot": 0,
        "tle_line1": "1 44387U 19038A   25355.51805921  .00000018  00000+0  27527-4 0  9993",
        "tle_line2": "2 44387  98.8973 335.3542 0001642 129.7186 230.4137 14.24294507336004"
      },
      "geometry": {
        "type": "Point",
        "coordinates": [
          149.9523296943594,
          -31.856328828512268
        ]
      }
    },
    {
      "type": "Feature",
      "properties": {
        "norad_id": 47719,
        "name": "ARKTIKA-M 1",
        "group": "weather",
        "lat": 59.884723288877645,
        "lon": 143.4270981999178,
        "alt_km": 36325.201650444724,
        "timestamp": "2025-12-21T16:47:54.371974+00:00",
        "meta_object_name": "ARKTIKA-M 1",
        "meta_object_id": "2021-016A",
        "meta_epoch": "2025-12-21T01:10:59.170944",
        "meta_mean_motion": 2.00630317,
        "meta_eccentricity": 0.7208476,
        "meta_inclination": 63.1763,
        "meta_ra_of_asc_node": 82.8606,
        "meta_arg_of_pericenter": 269.1559,
        "meta_mean_anomaly": 15.5506,
        "meta_ephemeris_type": 0,
        "meta_classification_type": "U",
        "meta_norad_cat_id": 47719,
        "meta_element_set_no": 999,
        "meta_rev_at_epoch": 3521,
        "meta_bstar": 0,
        "meta_mean_motion_dot": -1e-06,
        "meta_mean_motion_ddot": 0,
        "tle_line1": "1 47719U 21016A   25355.04929596 -.00000100  00000+0  00000+0 0  9992",
        "tle_line2": "2 47719  63.1763  82.8606 7208476 269.1559  15.5506  2.00630317 35212"
      },
      "geometry": {
        "type": "Point",
        "coordinates": [
          143.4270981999178,
          59.884723288877645
        ]
      }
    },
    {
      "type": "Feature",
      "properties": {
        "norad_id": 49008,
        "name": "FENGYUN 3E",
        "group": "weather",
        "lat": 28.71266141435587,
        "lon": -8.722925077940713,
        "alt_km": 824.9304421093029,
        "timestamp": "2025-12-21T16:47:54.371986+00:00",
        "meta_object_name": "FENGYUN 3E",
        "meta_object_id": "2021-062A",
        "meta_epoch": "2025-12-21T13:16:45.893280",
        "meta_mean_motion": 14.19882308,
        "meta_eccentricity": 7.87e-05,
        "meta_inclination": 98.7469,
        "meta_ra_of_asc_node": 355.9699,
        "meta_arg_of_pericenter": 204.8201,
        "meta_mean_anomaly": 155.2937,
        "meta_ephemeris_type": 0,
        "meta_classification_type": "U",
        "meta_norad_cat_id": 49008,
        "meta_element_set_no": 999,
        "meta_rev_at_epoch": 23137,
        "meta_bstar": 0.00017135,
        "meta_mean_motion_dot": 3.2e-06,
        "meta_mean_motion_ddot": 0,
        "tle_line1": "1 49008U 21062A   25355.55330895  .00000320  00000+0  17135-3 0  9994",
        "tle_line2": "2 49008  98.7469 355.9699 0000787 204.8201 155.2937 14.19882308231373"
      },
      "geometry": {
        "type": "Point",
        "coordinates": [
          -8.722925077940713,
          28.71266141435587
        ]
      }
    },
    {
      "type": "Feature",
      "properties": {
        "norad_id": 51850,
        "name": "GOES 18",
        "group": "weather",
        "lat": 0.0013248783385386446,
        "lon": -154.51132296769637,
        "alt_km": 35786.53055868537,
        "timestamp": "2025-12-21T16:47:54.371998+00:00",
        "meta_object_name": "GOES 18",
        "meta_object_id": "2022-021A",
        "meta_epoch": "2025-12-21T09:51:25.078752",
        "meta_mean_motion": 1.0027154,
        "meta_eccentricity": 2.86e-05,
        "meta_inclination": 0.0022,
        "meta_ra_of_asc_node": 239.7903,
        "meta_arg_of_pericenter": 75.7136,
        "meta_mean_anomaly": 145.5891,
        "meta_ephemeris_type": 0,
        "meta_classification_type": "U",
        "meta_norad_cat_id": 51850,
        "meta_element_set_no": 999,
        "meta_rev_at_epoch": 481,
        "meta_bstar": 0,
        "meta_mean_motion_dot": 1.19e-06,
        "meta_mean_motion_ddot": 0,
        "tle_line1": "1 51850U 22021A   25355.41070693  .00000119  00000+0  00000+0 0  9995",
        "tle_line2": "2 51850   0.0022 239.7903 0000286  75.7136 145.5891  1.00271540  4819"
      },
      "geometry": {
        "type": "Point",
        "coordinates": [
          -154.51132296769637,
          0.0013248783385386446
        ]
      }
    },
    {
      "type": "Feature",
      "properties": {
        "norad_id": 54234,
        "name": "NOAA 21 (JPSS-2)",
        "group": "weather",
        "lat": 23.74550584428591,
        "lon": -71.98699464303122,
        "alt_km": 825.0438277660342,
        "timestamp": "2025-12-21T16:47:54.372009+00:00",
        "meta_object_name": "NOAA 21 (JPSS-2)",
        "meta_object_id": "2022-150A",
        "meta_epoch": "2025-12-21T11:36:38.158272",
        "meta_mean_motion": 14.19526399,
        "meta_eccentricity": 0.0001832,
        "meta_inclination": 98.7474,
        "meta_ra_of_asc_node": 291.6833,
        "meta_arg_of_pericenter": 20.4242,
        "meta_mean_anomaly": 339.7007,
        "meta_ephemeris_type": 0,
        "meta_classification_type": "U",
        "meta_norad_cat_id": 54234,
        "meta_element_set_no": 999,
        "meta_rev_at_epoch": 16133,
        "meta_bstar": 4.8338e-05,
        "meta_mean_motion_dot": 5.8e-07,
        "meta_mean_motion_ddot": 0,
        "tle_line1": "1 54234U 22150A   25355.48377498  .00000058  00000+0  48338-4 0  9990",
        "tle_line2": "2 54234  98.7474 291.6833 0001832  20.4242 339.7007 14.19526399161331"
      },
      "geometry": {
        "type": "Point",
        "coordinates": [
          -71.98699464303122,
          23.74550584428591
        ]
      }
    },
    {
      "type": "Feature",
      "properties": {
        "norad_id": 54743,
        "name": "METEOSAT-12 (MTG-I1)",
        "group": "weather",
        "lat": -0.48254156758333033,
        "lon": -17.808754911073194,
        "alt_km": 35785.07492902669,
        "timestamp": "2025-12-21T16:47:54.372020+00:00",
        "meta_object_name": "METEOSAT-12 (MTG-I1)",
        "meta_object_id": "2022-170C",
        "meta_epoch": "2025-12-21T08:03:36.398016",
        "meta_mean_motion": 1.00270654,
        "meta_eccentricity": 0.0001496,
        "meta_inclination": 0.6957,
        "meta_ra_of_asc_node": 25.0288,
        "meta_arg_of_pericenter": 239.5899,
        "meta_mean_anomaly": 306.1292,
        "meta_ephemeris_type": 0,
        "meta_classification_type": "U",
        "meta_norad_cat_id": 54743,
        "meta_element_set_no": 999,
        "meta_rev_at_epoch": 1119,
        "meta_bstar": 0,
        "meta_mean_motion_dot": 1.5e-07,
        "meta_mean_motion_ddot": 0,
        "tle_line1": "1 54743U 22170C   25355.33583794  .00000015  00000+0  00000+0 0  9991",
        "tle_line2": "2 54743   0.6957  25.0288 0001496 239.5899 306.1292  1.00270654 11192"
      },
      "geometry": {
        "type": "Point",
        "coordinates": [
          -17.808754911073194,
          -0.48254156758333033
        ]
      }
    }
  ]
}